start=new Date('2022-02-23T00:00:00.000Z').valueOf();
sats=[{"CLASSIFICATION_TYPE":"U","MEAN_MOTION_DDOT":"0.0000000000000","OBJECT_TYPE":"PAYLOAD","NORAD_CAT_ID":"49139","MEAN_ELEMENT_THEORY":"SGP4","RCS_SIZE":"LARGE","DECAY_DATE":null,"APOAPSIS":"361.776","EPOCH":"2022-02-22T22:00:00.999936","RA_OF_ASC_NODE":"32.0958","PERIOD":"91.730","REF_FRAME":"TEME","MEAN_MOTION":"15.69817012","PERIAPSIS":"357.069","ECCENTRICITY":"0.00034930","GP_ID":"196686605","FILE":"3314780","TIME_SYSTEM":"UTC","LAUNCH_DATE":"2021-09-14","REV_AT_EPOCH":"368","ARG_OF_PERICENTER":"279.8120","OBJECT_NAME":"STARLINK-3057","TLE_LINE1":"1 49139U 21082K   22053.91667824 -.00037529  00000-0 -31311-3 0  9994","MEAN_ANOMALY":"61.5376","COUNTRY_CODE":"US","ELEMENT_SET_NO":"999","SITE":"AFWTR","MEAN_MOTION_DOT":"-0.00037529","EPHEMERIS_TYPE":"0","CENTER_NAME":"EARTH","BSTAR":"-0.00031311000000","TLE_LINE2":"2 49139  69.9999  32.0958 0003493 279.8120  61.5376 15.69817012  3689","SEMIMAJOR_AXIS":"6737.558","INCLINATION":"69.9999","OBJECT_ID":"2021-082K"},{"OBJECT_TYPE":"PAYLOAD","MEAN_MOTION_DDOT":"0.0000000000000","CLASSIFICATION_TYPE":"U","DECAY_DATE":null,"RCS_SIZE":"LARGE","MEAN_ELEMENT_THEORY":"SGP4","NORAD_CAT_ID":"49140","RA_OF_ASC_NODE":"32.0886","PERIOD":"91.734","EPOCH":"2022-02-22T22:00:00.999936","APOAPSIS":"362.142","PERIAPSIS":"357.051","MEAN_MOTION":"15.69756050","REF_FRAME":"TEME","TIME_SYSTEM":"UTC","FILE":"3314780","GP_ID":"196685353","ECCENTRICITY":"0.00037780","ARG_OF_PERICENTER":"281.9890","LAUNCH_DATE":"2021-09-14","REV_AT_EPOCH":"368","EPHEMERIS_TYPE":"0","SITE":"AFWTR","ELEMENT_SET_NO":"999","MEAN_MOTION_DOT":"0.00063998","COUNTRY_CODE":"US","MEAN_ANOMALY":"65.7483","TLE_LINE1":"1 49140U 21082L   22053.91667824  .00063998  00000-0  53361-3 0  9992","OBJECT_NAME":"STARLINK-3118","OBJECT_ID":"2021-082L","INCLINATION":"70.0016","SEMIMAJOR_AXIS":"6737.732","TLE_LINE2":"2 49140  70.0016  32.0886 0003778 281.9890  65.7483 15.69756050  3687","BSTAR":"0.00053361000000","CENTER_NAME":"EARTH"},{"EPOCH":"2022-02-22T22:00:00.999936","RA_OF_ASC_NODE":"55.3959","PERIOD":"96.110","APOAPSIS":"574.472","MEAN_MOTION":"14.98287319","PERIAPSIS":"569.908","REF_FRAME":"TEME","OBJECT_TYPE":"PAYLOAD","MEAN_MOTION_DDOT":"0.0000000000000","CLASSIFICATION_TYPE":"U","RCS_SIZE":"LARGE","MEAN_ELEMENT_THEORY":"SGP4","DECAY_DATE":null,"NORAD_CAT_ID":"49141","EPHEMERIS_TYPE":"0","SITE":"AFWTR","MEAN_MOTION_DOT":"0.00059914","ELEMENT_SET_NO":"999","MEAN_ANOMALY":"109.1484","TLE_LINE1":"1 49141U 21082M   22053.91667824  .00059914  00000-0  49917-2 0  9997","OBJECT_NAME":"STARLINK-3093","COUNTRY_CODE":"US","INCLINATION":"70.0008","OBJECT_ID":"2021-082M","BSTAR":"0.00499170000000","CENTER_NAME":"EARTH","SEMIMAJOR_AXIS":"6950.325","TLE_LINE2":"2 49141  70.0008  55.3959 0003283 278.9263 109.1484 14.98287319  3579","TIME_SYSTEM":"UTC","FILE":"3314780","ECCENTRICITY":"0.00032830","GP_ID":"196685603","ARG_OF_PERICENTER":"278.9263","LAUNCH_DATE":"2021-09-14","REV_AT_EPOCH":"357"},{"MEAN_MOTION":"15.69759109","PERIAPSIS":"357.098","REF_FRAME":"TEME","EPOCH":"2022-02-22T22:00:00.999936","PERIOD":"91.734","RA_OF_ASC_NODE":"32.0848","APOAPSIS":"362.078","MEAN_ELEMENT_THEORY":"SGP4","RCS_SIZE":"LARGE","DECAY_DATE":null,"NORAD_CAT_ID":"49142","OBJECT_TYPE":"PAYLOAD","CLASSIFICATION_TYPE":"U","MEAN_MOTION_DDOT":"0.0000000000000","INCLINATION":"70.0000","OBJECT_ID":"2021-082N","CENTER_NAME":"EARTH","BSTAR":"0.00054075000000","TLE_LINE2":"2 49142  70.0000  32.0848 0003696 280.8079  69.0384 15.69759109  3681","SEMIMAJOR_AXIS":"6737.723","SITE":"AFWTR","MEAN_MOTION_DOT":"0.00064871","ELEMENT_SET_NO":"999","EPHEMERIS_TYPE":"0","OBJECT_NAME":"STARLINK-3042","TLE_LINE1":"1 49142U 21082N   22053.91667824  .00064871  00000-0  54075-3 0  9998","MEAN_ANOMALY":"69.0384","COUNTRY_CODE":"US","ARG_OF_PERICENTER":"280.8079","LAUNCH_DATE":"2021-09-14","REV_AT_EPOCH":"368","TIME_SYSTEM":"UTC","FILE":"3314780","ECCENTRICITY":"0.00036960","GP_ID":"196686855"},{"CLASSIFICATION_TYPE":"U","MEAN_MOTION_DDOT":"0.0000000000000","OBJECT_TYPE":"PAYLOAD","NORAD_CAT_ID":"49143","DECAY_DATE":null,"MEAN_ELEMENT_THEORY":"SGP4","RCS_SIZE":"LARGE","APOAPSIS":"500.525","PERIOD":"94.579","RA_OF_ASC_NODE":"35.2792","EPOCH":"2022-02-22T22:00:00.999936","REF_FRAME":"TEME","PERIAPSIS":"495.834","MEAN_MOTION":"15.22541691","GP_ID":"196687106","ECCENTRICITY":"0.00034110","FILE":"3314780","TIME_SYSTEM":"UTC","REV_AT_EPOCH":"363","LAUNCH_DATE":"2021-09-14","ARG_OF_PERICENTER":"279.8858","COUNTRY_CODE":"US","OBJECT_NAME":"STARLINK-3109","TLE_LINE1":"1 49143U 21082P   22053.91667824 -.00657184  00000-0 -30446-1 0  9990","MEAN_ANOMALY":"93.8368","SITE":"AFWTR","MEAN_MOTION_DOT":"-0.00657184","ELEMENT_SET_NO":"999","EPHEMERIS_TYPE":"0","TLE_LINE2":"2 49143  70.0001  35.2792 0003411 279.8858  93.8368 15.22541691  3630","SEMIMAJOR_AXIS":"6876.314","CENTER_NAME":"EARTH","BSTAR":"-0.03044600000000","OBJECT_ID":"2021-082P","INCLINATION":"70.0001"},{"REF_FRAME":"TEME","PERIAPSIS":"569.734","MEAN_MOTION":"14.98317329","APOAPSIS":"574.460","PERIOD":"96.108","RA_OF_ASC_NODE":"55.4002","EPOCH":"2022-02-22T22:00:00.999936","NORAD_CAT_ID":"49144","DECAY_DATE":null,"RCS_SIZE":"LARGE","MEAN_ELEMENT_THEORY":"SGP4","MEAN_MOTION_DDOT":"0.0000000000000","CLASSIFICATION_TYPE":"U","OBJECT_TYPE":"PAYLOAD","SEMIMAJOR_AXIS":"6950.232","TLE_LINE2":"2 49144  70.0016  55.4002 0003400 282.0616 131.6776 14.98317329  3579","BSTAR":"0.00496320000000","CENTER_NAME":"EARTH","OBJECT_ID":"2021-082Q","INCLINATION":"70.0016","COUNTRY_CODE":"US","TLE_LINE1":"1 49144U 21082Q   22053.91667824  .00059615  00000-0  49632-2 0  9992","MEAN_ANOMALY":"131.6776","OBJECT_NAME":"STARLINK-3100","EPHEMERIS_TYPE":"0","SITE":"AFWTR","ELEMENT_SET_NO":"999","MEAN_MOTION_DOT":"0.00059615","REV_AT_EPOCH":"357","LAUNCH_DATE":"2021-09-14","ARG_OF_PERICENTER":"282.0616","GP_ID":"196685854","ECCENTRICITY":"0.00034000","TIME_SYSTEM":"UTC","FILE":"3314780"},{"CLASSIFICATION_TYPE":"U","MEAN_MOTION_DDOT":"0.0000000000000","OBJECT_TYPE":"PAYLOAD","NORAD_CAT_ID":"49145","MEAN_ELEMENT_THEORY":"SGP4","RCS_SIZE":"LARGE","DECAY_DATE":null,"APOAPSIS":"362.170","EPOCH":"2022-02-22T22:00:00.999936","PERIOD":"91.735","RA_OF_ASC_NODE":"32.0765","REF_FRAME":"TEME","MEAN_MOTION":"15.69744984","PERIAPSIS":"357.087","ECCENTRICITY":"0.00037720","GP_ID":"196686104","FILE":"3314780","TIME_SYSTEM":"UTC","REV_AT_EPOCH":"368","LAUNCH_DATE":"2021-09-14","ARG_OF_PERICENTER":"278.6565","OBJECT_NAME":"STARLINK-3119","MEAN_ANOMALY":"81.8445","TLE_LINE1":"1 49145U 21082R   22053.91667824  .00066870  00000-0  55754-3 0  9997","COUNTRY_CODE":"US","MEAN_MOTION_DOT":"0.00066870","SITE":"AFWTR","ELEMENT_SET_NO":"999","EPHEMERIS_TYPE":"0","CENTER_NAME":"EARTH","BSTAR":"0.00055754000000","TLE_LINE2":"2 49145  70.0007  32.0765 0003772 278.6565  81.8445 15.69744984  3684","SEMIMAJOR_AXIS":"6737.764","INCLINATION":"70.0007","OBJECT_ID":"2021-082R"},{"COUNTRY_CODE":"US","OBJECT_NAME":"STARLINK-3116","MEAN_ANOMALY":"107.7908","TLE_LINE1":"1 49146U 21082S   22053.91667824 -.00657143  00000-0 -30367-1 0  9990","SITE":"AFWTR","MEAN_MOTION_DOT":"-0.00657143","ELEMENT_SET_NO":"999","EPHEMERIS_TYPE":"0","TLE_LINE2":"2 49146  70.0001  35.2787 0003465 282.5862 107.7908 15.22626640  3635","SEMIMAJOR_AXIS":"6876.058","CENTER_NAME":"EARTH","BSTAR":"-0.03036700000000","INCLINATION":"70.0001","OBJECT_ID":"2021-082S","GP_ID":"196686355","ECCENTRICITY":"0.00034650","TIME_SYSTEM":"UTC","FILE":"3314780","REV_AT_EPOCH":"363","LAUNCH_DATE":"2021-09-14","ARG_OF_PERICENTER":"282.5862","APOAPSIS":"500.306","RA_OF_ASC_NODE":"35.2787","PERIOD":"94.573","EPOCH":"2022-02-22T22:00:00.999936","REF_FRAME":"TEME","PERIAPSIS":"495.541","MEAN_MOTION":"15.22626640","CLASSIFICATION_TYPE":"U","MEAN_MOTION_DDOT":"0.0000000000000","OBJECT_TYPE":"PAYLOAD","NORAD_CAT_ID":"49146","DECAY_DATE":null,"MEAN_ELEMENT_THEORY":"SGP4","RCS_SIZE":"LARGE"},{"MEAN_MOTION":"15.69795528","PERIAPSIS":"356.910","REF_FRAME":"TEME","EPOCH":"2022-02-22T22:00:00.999936","RA_OF_ASC_NODE":"32.0834","PERIOD":"91.732","APOAPSIS":"362.058","RCS_SIZE":"LARGE","MEAN_ELEMENT_THEORY":"SGP4","DECAY_DATE":null,"NORAD_CAT_ID":"49147","OBJECT_TYPE":"PAYLOAD","MEAN_MOTION_DDOT":"0.0000000000000","CLASSIFICATION_TYPE":"U","OBJECT_ID":"2021-082T","INCLINATION":"70.0004","BSTAR":"0.00027782000000","CENTER_NAME":"EARTH","SEMIMAJOR_AXIS":"6737.619","TLE_LINE2":"2 49147  70.0004  32.0834 0003820 280.8405  73.2171 15.69795528  3683","EPHEMERIS_TYPE":"0","SITE":"AFWTR","MEAN_MOTION_DOT":"0.00033150","ELEMENT_SET_NO":"999","TLE_LINE1":"1 49147U 21082T   22053.91667824  .00033150  00000-0  27782-3 0  9994","MEAN_ANOMALY":"73.2171","OBJECT_NAME":"STARLINK-3071","COUNTRY_CODE":"US","ARG_OF_PERICENTER":"280.8405","REV_AT_EPOCH":"368","LAUNCH_DATE":"2021-09-14","FILE":"3314780","TIME_SYSTEM":"UTC","ECCENTRICITY":"0.00038200","GP_ID":"196686606"},{"APOAPSIS":"500.106","EPOCH":"2022-02-22T22:00:00.999936","RA_OF_ASC_NODE":"35.2782","PERIOD":"94.568","REF_FRAME":"TEME","MEAN_MOTION":"15.22711625","PERIAPSIS":"495.229","CLASSIFICATION_TYPE":"U","MEAN_MOTION_DDOT":"0.0000000000000","OBJECT_TYPE":"PAYLOAD","NORAD_CAT_ID":"49148","MEAN_ELEMENT_THEORY":"SGP4","RCS_SIZE":"LARGE","DECAY_DATE":null,"OBJECT_NAME":"STARLINK-3048","MEAN_ANOMALY":"121.3552","TLE_LINE1":"1 49148U 21082U   22053.91667824 -.00657143  00000-0 -30290-1 0  9997","COUNTRY_CODE":"US","MEAN_MOTION_DOT":"-0.00657143","SITE":"AFWTR","ELEMENT_SET_NO":"999","EPHEMERIS_TYPE":"0","CENTER_NAME":"EARTH","BSTAR":"-0.03029000000000","TLE_LINE2":"2 49148  70.0001  35.2782 0003547 285.6577 121.3552 15.22711625  3635","SEMIMAJOR_AXIS":"6875.803","INCLINATION":"70.0001","OBJECT_ID":"2021-082U","ECCENTRICITY":"0.00035470","GP_ID":"196685354","FILE":"3314780","TIME_SYSTEM":"UTC","REV_AT_EPOCH":"363","LAUNCH_DATE":"2021-09-14","ARG_OF_PERICENTER":"285.6577"}];
